COSMOS 2513             
1 41121U 15075A   26116.50992657 -.00000150  00000+0  00000+0 0  9991
2 41121   0.0618  90.9998 0002961 307.0902  80.2398  1.00271433 38034
EXPRESS-AMU1            
1 41191U 15082A   26116.28724093  .00000000  00000+0  00000+0 0  9991
2 41191   0.0187 243.6646 0002994 138.6240 331.5161  1.00268500 37746
GAOFEN-4                
1 41194U 15083A   26115.58798596 -.00000348  00000+0  00000+0 0  9992
2 41194   0.3731  82.6392 0003203 131.5552 316.7450  1.00267707 38002
BELINTERSAT-1           
1 41238U 16001A   26116.50420654  .00000095  00000+0  00000+0 0  9990
2 41238   0.0113 240.9889 0002171 127.0717  79.4794  1.00269508 37710
IRNSS-1E                
1 41241U 16003A   26111.89127155 -.00000302  00000+0  00000+0 0  9995
2 41241  33.1155  60.5610 0017245 183.4571  38.5260  1.00277854 37512
EUTELSAT 9B             
1 41310U 16005A   26116.35319251  .00000049  00000+0  00000+0 0  9997
2 41310   0.0744  72.3091 0003432 286.2534 351.9365  1.00273157 37592
SES-9                   
1 41380U 16013A   26116.37656137 -.00000358  00000+0  00000+0 0  9996
2 41380   0.0078  28.6200 0002150  29.4857  40.1235  1.00271721 36920
EUTELSAT 65 WEST A      
1 41382U 16014A   26116.48106646 -.00000289  00000+0  00000+0 0  9999
2 41382   0.0590  30.0166 0002226 355.9632 296.4897  1.00272903 37004
BEIDOU-2 IGSO-6         
1 41434U 16021A   26112.85559397 -.00000169  00000+0  00000+0 0  9994
2 41434  60.1522  38.5901 0055866 232.0601 343.5038  1.00270364 36923
IRNSS-1G                
1 41469U 16027A   26116.38740302 -.00000341  00000+0  00000+0 0  9990
2 41469   5.0685  98.6907 0005884 345.4500  39.3280  1.00275971 36663
JCSAT-2B                
1 41471U 16028A   26116.45323850  .00000000  00000+0  00000+0 0  9998
2 41471   0.0162 233.1333 0001115 158.0558 140.4346  1.00267945 36618
THAICOM 8               
1 41552U 16031A   26116.50949323 -.00000134  00000+0  00000+0 0  9996
2 41552   0.0644  42.9974 0004238 345.1417  88.3262  1.00271822 36203
INTELSAT 31 (IS-31)     
1 41581U 16035A   26116.40391528 -.00000163  00000+0  00000+0 0  9991
2 41581   0.0108 234.9935 0002208  37.4562 352.3217  1.00271820 36164
BEIDOU-2 G7             
1 41586U 16037A   26116.51814872 -.00000363  00000+0  00000+0 0  9994
2 41586   1.5942  68.8082 0007692 354.3547  88.3279  1.00265380  6372
ABS-2A (MONGOLSAT-1)    
1 41588U 16038A   26116.50879991  .00000000  00000+0  00000+0 0  9996
2 41588   0.0157 240.8509 0001684  95.3014 136.2304  1.00268016 36192
EUTELSAT 117 WEST B     
1 41589U 16038B   26116.49697553 -.00000024  00000+0  00000+0 0  9994
2 41589   0.0103  98.0518 0000144  53.8454 124.5217  1.00270405 36147
BRISAT                  
1 41591U 16039A   26116.45254515 -.00000209  00000+0  00000+0 0  9996
2 41591   0.0141 261.3151 0002190 126.1096 140.4447  1.00272017 36096
ECHOSTAR 18             
1 41592U 16039B   26116.48184646  .00000000  00000+0  00000+0 0  9995
2 41592   0.0129 220.5318 0001451 181.1933 284.8470  1.00268489 36104
MUOS-5                  
1 41622U 16041A   26116.47369976 -.00000171  00000+0  00000+0 0  9992
2 41622   2.3150 300.7324 0194771 261.7049  77.6791  1.00270751 36565
TIANTONG-1 1            
1 41725U 16048A   26115.72979334 -.00000328  00000+0  00000+0 0  9999
2 41725   3.7515  42.9578 0006440  20.2339 154.6450  1.00269141 35748
JCSAT-16                
1 41729U 16050A   26116.51711252  .00000000  00000+0  00000+0 0  9993
2 41729   0.0161 232.0097 0001114 175.5096 137.1151  1.00267987 35553
USA 270                 
1 41744U 16052A   26111.25336792  .00000060  00000+0  00000+0 0  9996
2 41744   4.0526  77.8945 0003438 320.1673  82.4480  1.00347865 27569
USA 271                 
1 41745U 16052B   26110.88563977 -.00000360  00000+0  00000+0 0  9996
2 41745   4.0240  77.9674 0007317 143.7849  69.2738  1.00241576 27344
INTELSAT 36 (IS-36)     
1 41747U 16053A   26116.50758655 -.00000036  00000+0  00000+0 0  9993
2 41747   0.0134 322.9589 0001570   4.3799 138.3919  1.00269609 35449
INSAT-3DR               
1 41752U 16054A   26116.19280867 -.00000090  00000+0  00000+0 0  9990
2 41752   0.1134  86.1839 0011648 195.1321  76.2833  1.00271343 35296
GSAT-18                 
1 41793U 16060A   26116.50871323 -.00000089  00000+0  00000+0 0  9998
2 41793   0.0654  82.7493 0005063 335.1176  53.7871  1.00271371 35016
SKY MUSTER 2 (NBN1B)    
1 41794U 16060B   26116.51711252 -.00000256  00000+0  00000+0 0  9990
2 41794   0.0159 257.9065 0001736 129.5677 157.9998  1.00272110 35000
HIMAWARI-9              
1 41836U 16064A   26116.51711252 -.00000287  00000+0  00000+0 0  9995
2 41836   0.0373 125.0471 0000856 280.6948 135.7012  1.00272052 34693
SHIJIAN-17 (SJ-17)      
1 41838U 16065A   26116.34201248 -.00000288  00000+0  00000+0 0  9999
2 41838   5.6237  73.2120 0001505 350.1602 227.3501  0.99864109 34689
GOES 16                 
1 41866U 16071A   26116.52834772 -.00000103  00000+0  00000+0 0  9997
2 41866   0.2120  85.2831 0001506 249.7867 324.9509  1.00271169 34583
TIANLIAN 1-04           
1 41869U 16072A   26116.52909091  .00000019  00000+0  00000+0 0  9993
2 41869   0.7341  83.0755 0040113  92.1792  46.5275  1.00272407 34786
WGS F8 (USA 272)        
1 41879U 16075A   26116.51669588 -.00000214  00000+0  00000+0 0  9998
2 41879   0.0122 282.9807 0000379 230.9415  36.4062  1.00272598 34300
FENGYUN 4A              
1 41882U 16077A   26115.30638583 -.00000369  00000+0  00000+0 0  9992
2 41882   2.1903  80.7930 0008212 141.4993 225.0593  1.00267100 34405
ECHOSTAR 19             
1 41893U 16079A   26116.40348193  .00000000  00000+0  00000+0 0  9994
2 41893   0.0132 230.5252 0001143 170.7527 221.2829  1.00268694 34188
JCSAT-110A (JCSAT-15)   
1 41903U 16082A   26116.37127868  .00000000  00000+0  00000+0 0  9990
2 41903   0.0173 233.8051 0000686 165.9363  58.3659  1.00268129 34243
STAR ONE D1             
1 41904U 16082B   26116.47733977 -.00000223  00000+0  00000+0 0  9994
2 41904   0.0191 101.0957 0002219 299.9329 261.3048  1.00273026 34250
TJS-2                   
1 41911U 17001A   26116.50715323 -.00000018  00000+0  00000+0 0  9995
2 41911   0.7015  85.8897 0001055 295.0195  82.7099  1.00272812 34205
SBIRS GEO-4 (USA 273)   
1 41937U 17004A   26116.49813985  .00000113  00000+0  00000+0 0  9992
2 41937   2.1481  41.8141 0002325 346.1758  26.7349  1.00272185 34089
HISPASAT 36W-1          
1 41942U 17006A   26116.41553836 -.00000257  00000+0  00000+0 0  9998
2 41942   0.0047  62.9098 0000933 321.8670 303.2362  1.00271563 33728
TELKOM 3S               
1 41944U 17007A   26116.44613181 -.00000375  00000+0  00000+0 0  9995
2 41944   0.0143 242.2834 0002376 156.9233  93.8537  1.00271020 33626
INTELSAT 32E (IS-32E)   
1 41945U 17007B   26116.48548647  .00000000  00000+0  00000+0 0  9998
2 41945   0.0203 245.2802 0001533  69.0348  31.7753  1.00251322 33700
ECHOSTAR 23             
1 42070U 17014A   26116.50253042 -.00000069  00000+0  00000+0 0  9997
2 42070   0.0188 228.5826 0002133 171.1884 245.7428  1.00271990 33405
WGS F9 (USA 275)        
1 42075U 17016A   26116.34903249 -.00000109  00000+0  00000+0 0  9992
2 42075   0.0100 236.2594 0000664  71.9528  19.8259  1.00270972 33378
SES-10                  
1 42432U 17017A   26116.48071978 -.00000285  00000+0  00000+0 0  9995
2 42432   0.0269  15.9226 0002839  34.5277 270.1975  1.00271495 33230
CHINASAT 16 (SJ-13)     
1 42662U 17018A   26115.86194414 -.00000366  00000+0  00000+0 0  9993
2 42662   0.1045  86.8445 0004633 163.9351  23.8943  1.00274178 33220
KOREASAT 7              
1 42691U 17023A   26116.51685992 -.00000374  00000+0  00000+0 0  9999
2 42691   0.0253 332.4824 0000988  68.4407 115.5630  1.00271734 32858
SGDC                    
1 42692U 17023B   26115.61460087  .00000000  00000+0  00000+0 0  9991
2 42692   0.0132  99.6902 0002773 305.1902 315.1420  1.00271416 32884
GSAT-9                  
1 42695U 17024A   26116.51330659 -.00000299  00000+0  00000+0 0  9997
2 42695   0.0463  61.0935 0002343 336.1136  99.4030  1.00275139 32783
INMARSAT 5-F4           
1 42698U 17025A   26116.50515990  .00000000  00000+0  00000+0 0  9992
2 42698   0.0148 237.6702 0000075 116.4027  98.8135  1.00270730 32755
SES-15                  
1 42709U 17026A   26116.49142088  .00000047  00000+0  00000+0 0  9999
2 42709   0.0246 323.5055 0000687  42.7551 255.9922  1.00270678  6915
QZS-2 (MICHIBIKI-2)     
1 42738U 17028A   26116.23428737 -.00000266  00000+0  00000+0 0  9997
2 42738  39.5095 243.9120 0740318 270.8047 281.9812  1.00247520  7109
VIASAT-2                
1 42740U 17029A   26116.33516741 -.00000278  00000+0  00000+0 0  9998
2 42740   0.0174 268.6097 0000156  97.6065 258.8855  1.00270191 32685
EUTELSAT 172B           
1 42741U 17029B   26116.40669484 -.00000018  00000+0  00000+0 0  9992
2 42741   0.0175 176.2763 0000129  90.4879 266.0397  1.00271279 33226
GSAT-19                 
1 42747U 17031A   26116.43217843  .00000113  00000+0  00000+0 0  9997
2 42747   0.0170 237.1872 0006907 171.3540   9.3670  1.00271530 32624
ECHOSTAR 21             
1 42749U 17032A   26116.35345251  .00000050  00000+0  00000+0 0  9996
2 42749   1.7797 352.3497 0002401  34.4408 325.0509  1.00271152 32572
BULGARIASAT-1           
1 42801U 17038A   26116.28048089  .00000000  00000+0  00000+0 0  9997
2 42801   0.0171 119.3072 0003519 290.9215 266.9322  1.00272528 32322
HELLAS-SAT 3            
1 42814U 17040A   26116.50177986  .00000140  00000+0  00000+0 0  9993
2 42814   0.0790  53.2147 0005317 334.9448  45.9803  1.00274028 32288
GSAT-17                 
1 42815U 17040B   26116.51252659 -.00000271  00000+0  00000+0 0  9992
2 42815   0.0182 249.5175 0004356  67.2614 175.7564  1.00274194 32277
INTELSAT 35E (IS-35E)   
1 42818U 17041A   26116.41588501  .00000000  00000+0  00000+0 0  9992
2 42818   0.0129 225.5308 0002191 169.1796 294.9471  1.00271442 32297
